     2              NAVIGATION DATA                         RINEX VERSION / TYPE
CCRINEXN V1.6.0 UX  CDDIS               29-APR-18 23:30     PGM / RUN BY / DATE 
IGS BROADCAST EPHEMERIS FILE                                COMMENT             
    0.9313D-08  0.1490D-07 -0.5960D-07 -0.1192D-06          ION ALPHA           
    0.8806D+05  0.4915D+05 -0.1311D+06 -0.3277D+06          ION BETA            
   -0.372529029846D-08-0.710542735760D-14   233472     1999 DELTA-UTC: A0,A1,T,W
    18                                                      LEAP SECONDS        
                                                            END OF HEADER       
27 18  4 29 17 30  0.0 0.369875284377D-03-0.444089209850D-12 0.000000000000D+00
    0.210000000000D+03-0.669648437500D+02 0.396159358770D-08 0.643314298154D+00
   -0.349991023541D-05 0.588793511270D-02 0.113723799586D-04 0.515368515224D+04
    0.630000000000D+05 0.307336449623D-07 0.298107431186D+01 0.800937414169D-07
    0.977631857377D+00 0.171402343750D+03 0.400962457124D+00-0.774901627652D-08
   -0.177328815028D-09 0.100000000000D+01 0.199900000000D+04 0.000000000000D+00
    0.512000000000D+03 0.000000000000D+00 0.139698386192D-08 0.210000000000D+03
    0.576120000000D+05 0.400000000000D+01 0.000000000000D+00 0.000000000000D+00
29 18  4 29 17 30  0.0 0.458256021375D-03-0.622435436526D-11 0.000000000000D+00
    0.210000000000D+03-0.753125000000D+02 0.361372195460D-08 0.173813041995D+01
   -0.389013439417D-05 0.718572875485D-03 0.135470181704D-04 0.515371270205D+04
    0.630000000000D+05-0.149011611938D-07 0.304549322337D+01-0.465661287308D-08
    0.984173291911D+00 0.127218750000D+03 0.101898569586D+01-0.752311400964D-08
   -0.889322758148D-10 0.100000000000D+01 0.199900000000D+04 0.000000000000D+00
    0.256000000000D+03 0.000000000000D+00-0.102445483208D-07 0.210000000000D+03
    0.576600000000D+05 0.400000000000D+01 0.000000000000D+00 0.000000000000D+00
30 18  4 29 17 30  0.0 0.795482483227D-04-0.406075173487D-11 0.000000000000D+00
    0.210000000000D+03 0.102707031250D+03 0.519128766654D-08-0.211435135406D+01
    0.530853867531D-05 0.329443812370D-02 0.421982258558D-05 0.515374538905D+04
    0.630000000000D+05 0.130385160446D-07 0.942388922487D+00-0.288709998131D-07
    0.944482650111D+00 0.291128906250D+03-0.310966465449D+01-0.852297708652D-08
    0.455733268834D-09 0.100000000000D+01 0.199900000000D+04 0.000000000000D+00
    0.102400000000D+04 0.000000000000D+00 0.372529029846D-08 0.210000000000D+03
    0.612540000000D+05 0.400000000000D+01 0.000000000000D+00 0.000000000000D+00
31 18  4 29 17 30  0.0 0.125095684780D-03-0.264321897703D-11 0.000000000000D+00
    0.210000000000D+03 0.106976562500D+03 0.473251855697D-08-0.243632042250D+01
    0.544451177120D-05 0.876823475119D-02 0.552646815777D-05 0.515365071663D+04
    0.630000000000D+05-0.218860805035D-06 0.920786461789D+00-0.838190317154D-07
    0.963542766921D+00 0.275343750000D+03-0.132228470681D+00-0.822242885319D-08
    0.466269421993D-09 0.100000000000D+01 0.199900000000D+04 0.000000000000D+00
    0.102400000000D+04 0.000000000000D+00-0.135041773319D-07 0.210000000000D+03
    0.630360000000D+05 0.400000000000D+01 0.000000000000D+00 0.000000000000D+00
32 18  4 29 17 30  0.0-0.515507301316D-03 0.430233626503D-11 0.000000000000D+00
    0.210000000000D+03 0.390625000000D+01 0.423785509510D-08 0.135194168870D+01
    0.316649675369D-06 0.202077871654D-02 0.126808881760D-04 0.515367079792D+04
    0.630000000000D+05-0.456348061562D-07-0.164214140201D+00 0.186264514923D-08
    0.957651786727D+00 0.132398437500D+03-0.259110651431D+01-0.786169954166D-08
   -0.201794119821D-09 0.100000000000D+01 0.199900000000D+04 0.000000000000D+00
   -0.100000000000D+01 0.000000000000D+00 0.465661287308D-09 0.210000000000D+03
    0.576120000000D+05 0.400000000000D+01 0.000000000000D+00 0.000000000000D+00
 8 18  4 29 17 59 44.0-0.995383597910D-04-0.136424205266D-11 0.000000000000D+00
    0.300000000000D+01-0.694375000000D+02 0.409445632954D-08 0.117535974062D+01
   -0.355765223503D-05 0.348883203696D-02 0.113770365715D-04 0.515356183243D+04
    0.647840000000D+05 0.577419996262D-07 0.297282956084D+01-0.130385160446D-07
    0.969439118219D+00 0.159375000000D+03-0.461739399699D+00-0.777639552752D-08
   -0.181078971262D-09 0.100000000000D+01 0.199900000000D+04 0.000000000000D+00
    0.200000000000D+01 0.000000000000D+00 0.512227416039D-08 0.300000000000D+01
    0.643200000000D+05 0.000000000000D+00 0.000000000000D+00 0.000000000000D+00
15 18  4 29 17 59 44.0-0.354878138751D-03 0.454747350886D-12 0.000000000000D+00
    0.600000000000D+01 0.123125000000D+02 0.494377735674D-08 0.119868435287D-01
    0.724568963051D-06 0.102300557774D-01 0.123754143715D-04 0.515373803139D+04
    0.647840000000D+05 0.782310962677D-07-0.239048314533D+00 0.137835741043D-06
    0.928767434046D+00 0.124937500000D+03 0.674675281905D+00-0.832856120372D-08
   -0.259296515026D-09 0.100000000000D+01 0.199900000000D+04 0.000000000000D+00
    0.200000000000D+01 0.000000000000D+00-0.111758708954D-07 0.600000000000D+01
    0.642000000000D+05 0.400000000000D+01 0.000000000000D+00 0.000000000000D+00
22 18  4 29 17 59 44.0-0.374704133719D-03-0.129602995003D-10 0.000000000000D+00
    0.400000000000D+01-0.390000000000D+02 0.568309399540D-08 0.235624053408D+00
   -0.196509063244D-05 0.738373328932D-02 0.455044209957D-05 0.515381812286D+04
    0.647840000000D+05-0.165775418282D-06-0.126150640299D+01-0.102445483208D-06
    0.924594616757D+00 0.275625000000D+03-0.155406355612D+01-0.880715234075D-08
   -0.343585743190D-09 0.100000000000D+01 0.199900000000D+04 0.000000000000D+00
    0.200000000000D+01 0.000000000000D+00-0.176951289177D-07 0.400000000000D+01
    0.576300000000D+05 0.000000000000D+00 0.000000000000D+00 0.000000000000D+00
24 18  4 29 17 59 44.0-0.491146929562D-04-0.454747350886D-12 0.000000000000D+00
    0.300000000000D+01 0.117531250000D+03 0.517807283038D-08-0.104727819943D+01
    0.616908073425D-05 0.692189345136D-02 0.536255538464D-05 0.515365187836D+04
    0.647840000000D+05 0.188127160072D-06 0.849106355659D+00-0.316649675369D-07
    0.942016110249D+00 0.264937500000D+03 0.544150190611D+00-0.856749972790D-08
    0.517521556850D-09 0.100000000000D+01 0.199900000000D+04 0.000000000000D+00
    0.200000000000D+01 0.000000000000D+00 0.279396772385D-08 0.300000000000D+01
    0.642600000000D+05 0.000000000000D+00 0.000000000000D+00 0.000000000000D+00
25 18  4 29 17 59 44.0-0.577322207391D-03-0.591171556152D-11 0.000000000000D+00
    0.640000000000D+02-0.807500000000D+02 0.465269380337D-08-0.304694201039D+01
   -0.423751771450D-05 0.748571543954D-02 0.278651714325D-05 0.515365135574D+04
    0.647840000000D+05 0.000000000000D+00 0.194145578691D+01-0.154599547386D-06
    0.974216452757D+00 0.330937500000D+03 0.850046931524D+00-0.829391690350D-08
   -0.342157109360D-09 0.100000000000D+01 0.199900000000D+04 0.000000000000D+00
    0.200000000000D+01 0.000000000000D+00 0.605359673500D-08 0.640000000000D+02
    0.576600000000D+05 0.400000000000D+01 0.000000000000D+00 0.000000000000D+00
28 18  4 29 17 59 44.0 0.710794236511D-03 0.341060513165D-11 0.000000000000D+00
    0.140000000000D+02-0.856562500000D+02 0.419838916547D-08 0.176291768037D+01
   -0.485964119434D-05 0.195070859045D-01 0.352412462234D-05 0.515367811203D+04
    0.647840000000D+05 0.229105353355D-06 0.202406884234D+01-0.379979610443D-06
    0.985894753697D+00 0.324062500000D+03-0.152235617750D+01-0.794211653532D-08
   -0.384301721995D-09 0.100000000000D+01 0.199900000000D+04 0.000000000000D+00
    0.200000000000D+01 0.000000000000D+00-0.111758708954D-07 0.140000000000D+02
    0.603300000000D+05 0.400000000000D+01 0.000000000000D+00 0.000000000000D+00
 1 18  4 29 18  0  0.0-0.441512092948D-04-0.272848410532D-11 0.000000000000D+00
    0.980000000000D+02 0.474687500000D+02 0.435303837420D-08-0.128936112247D+01
    0.245869159699D-05 0.765831326135D-02 0.738911330700D-05 0.515366698456D+04
    0.648000000000D+05 0.173225998878D-06-0.224619732432D+01-0.726431608200D-07
    0.970802598831D+00 0.243593750000D+03 0.616593573517D+00-0.795497445694D-08
    0.421088969249D-09 0.100000000000D+01 0.199900000000D+04 0.000000000000D+00
    0.280000000000D+01 0.000000000000D+00 0.558793544769D-08 0.980000000000D+02
    0.609300000000D+05 0.000000000000D+00 0.000000000000D+00 0.000000000000D+00
 2 18  4 29 18  0  0.0 0.130093656480D-03-0.112549969344D-10 0.000000000000D+00
    0.730000000000D+02 0.608437500000D+02 0.502806658201D-08-0.948318026326D+00
    0.336766242981D-05 0.178802986629D-01 0.767596065998D-05 0.515372279549D+04
    0.648000000000D+05-0.614672899246D-07-0.230674183189D+01 0.378116965294D-06
    0.949902613840D+00 0.230937500000D+03-0.186302925485D+01-0.855785646907D-08
    0.492520515456D-09 0.100000000000D+01 0.199900000000D+04 0.000000000000D+00
    0.200000000000D+01 0.000000000000D+00-0.204890966415D-07 0.730000000000D+02
    0.576180000000D+05 0.400000000000D+01 0.000000000000D+00 0.000000000000D+00
 3 18  4 29 18  0  0.0 0.606272369623D-04 0.761701812735D-11 0.000000000000D+00
    0.520000000000D+02-0.427500000000D+02 0.473162575787D-08-0.216112948797D+01
   -0.213831663132D-05 0.132466305513D-02 0.526942312717D-05 0.515376419640D+04
    0.648000000000D+05-0.707805156708D-07-0.120296075793D+01 0.186264514923D-08
    0.960564536351D+00 0.278562500000D+03 0.432042576696D+00-0.819641243766D-08
   -0.323942067615D-09 0.100000000000D+01 0.199900000000D+04 0.000000000000D+00
    0.200000000000D+01 0.000000000000D+00 0.232830643654D-08 0.520000000000D+02
    0.576300000000D+05 0.000000000000D+00 0.000000000000D+00 0.000000000000D+00
